satname,norad_id,inclination_deg,eccentricity,mean_motion_rev_per_day,perigee_km,apogee_km,l1,l2
STARLINK-1202,45183,53.1626,0.0001334,15.30204661,474.2869172392502,476.1153878583491,1 45183U 20012F   26078.02852659  .00003419  00000+0  12748-3 0  9997,2 45183  53.1626 355.8747 0001334  73.2881 286.8267 15.30204661336385
STARLINK-1216,45185,53.162,0.0001479,15.30203737,474.1903023128298,476.21752055443085,1 45185U 20012H   26078.08436586  .00004189  00000+0  15345-3 0  9993,2 45185  53.1620 355.5945 0001479  77.7094 282.4072 15.30203737336337
STARLINK-1225,45187,53.1615,0.0001187,15.30204198,474.3890435738722,476.0160263794769,1 45187U 20012K   26078.73441647  .00002174  00000+0  85487-4 0  9998,2 45187  53.1615 353.0149 0001187  83.2150 276.8986 15.30204198336471
STARLINK-1230,45189,53.1625,0.0001482,15.3020248,474.19199891705375,476.22333027563946,1 45189U 20012M   26078.09075321 -.00001820  00000+0 -49315-4 0  9990,2 45189  53.1625 356.0650 0001482  77.4946 282.6221 15.30202480333601
STARLINK-1234,45190,53.0422,0.000515,15.6459719,370.9199283939415,377.8750389121051,1 45190U 20012N   26078.81441804  .00050976  00000+0  51979-3 0  9997,2 45190  53.0422 275.7084 0005150 326.3568  33.7119 15.64597190337468
STARLINK-1269,45197,53.1618,0.000136,15.30177817,474.3492397695436,476.2133695484099,1 45197U 20012V   26078.08759294 -.00001335  00000+0 -32971-4 0  9997,2 45197  53.1618 355.9384 0001360  81.1992 278.9163 15.30177817336355
STARLINK-1154,45198,53.0486,0.0007042,15.47785099,418.4173772133372,427.9963899389659,1 45198U 20012W   26078.82870873  .00059737  00000+0  11316-2 0  9992,2 45198  53.0486 321.5721 0007042 131.6524 228.5087 15.47785099336864
STARLINK-1199,45201,53.1611,9.75e-05,15.30186747,474.58643508908517,475.922846459036,1 45201U 20012Z   26078.71001740 -.00001460  00000+0 -37201-4 0  9999,2 45201  53.1611 337.2953 0000975  90.4000 269.7113 15.30186747336695
STARLINK-1209,45206,53.0457,0.0007008,15.52898801,403.5115293740928,413.02335383944774,1 45206U 20012AE  26078.84917820  .00073110  00000+0  11521-2 0  9997,2 45206  53.0457 284.5402 0007008 304.9688  55.0663 15.52898801336498
STARLINK-1231,45212,53.0467,0.0004399,15.22027354,496.70067077798285,502.7518148590152,1 45212U 20012AL  26078.86073282  .00025860  00000+0  11274-2 0  9995,2 45212  53.0467 329.0463 0004399 130.1557 229.9824 15.22027354336778
STARLINK-1271,45217,53.1614,0.0001033,15.30206577,474.48748251297366,475.9033809933735,1 45217U 20012AR  26077.98947009  .00006489  00000+0  23096-3 0  9991,2 45217  53.1614 340.7660 0001033  63.2340 296.8767 15.30206577336588
STARLINK-1191,45222,53.1592,8.52e-05,15.31003645,472.2328787495853,473.40028123961656,1 45222U 20012AW  26078.85630848  .00040603  00000+0  13418-2 0  9996,2 45222  53.1592 311.5795 0000852 139.7714 220.3350 15.31003645337073
STARLINK-1212,45223,53.0484,0.0005327,15.5401992,401.389719446458,408.6164769070556,1 45223U 20012AX  26078.82495499  .00072438  00000+0  10967-2 0  9992,2 45223  53.0484 301.2244 0005327 158.9134 201.2096 15.54019920337218
STARLINK-1215,45225,53.16,0.0001356,15.30216416,474.2367467463109,476.09536253472834,1 45225U 20012AZ  26078.84481177  .00007677  00000+0  27091-3 0  9994,2 45225  53.1600 311.1365 0001356  74.4315 285.6835 15.30216416337036
STARLINK-1221,45227,53.0642,0.0003507,15.42253303,437.06974168868874,441.851604696667,1 45227U 20012BB  26077.79049443  .00014759  00000+0  34683-3 0  9999,2 45227  53.0642 226.4762 0003507  63.2250 296.9114 15.42253303338110
STARLINK-1222,45228,53.0551,0.0003992,15.50162492,413.53890451642656,418.96354407470335,1 45228U 20012BC  26078.80957309  .00019023  00000+0  33890-3 0  9990,2 45228  53.0551 294.2697 0003992 117.4398 242.7017 15.50162492337198
STARLINK-1226,45229,53.1573,0.0001095,15.31010749,472.04521027019746,473.54556446303013,1 45229U 20012BD  26078.87184848  .00037172  00000+0  12297-2 0  9990,2 45229  53.1573 311.2969 0001095 111.2850 248.8268 15.31010749336979
STARLINK-1227,45230,53.1602,6.58e-05,15.31632039,470.4919214840975,471.39326035826343,1 45230U 20012BE  26078.82343706  .00011982  00000+0  39809-3 0  9997,2 45230  53.1602 311.7177 0000658 212.4140 147.6821 15.31632039337086
STARLINK-1246,45235,53.162,0.0001266,15.30188812,474.38083637307864,476.11611357534093,1 45235U 20012BK  26078.75015979 -.00000332  00000+0  90686-6 0  9993,2 45235  53.1620 352.5191 0001266  94.5188 265.5957 15.30188812336518
STARLINK-1270,45237,53.0485,0.0003106,15.48653102,418.5535525938576,422.776968558127,1 45237U 20012BM  26078.84858047  .00065421  00000+0  12016-2 0  9992,2 45237  53.0485 298.9641 0003106 143.5257 216.5963 15.48653102337240
STARLINK-1279,45360,53.043,0.0002177,15.59043966,388.9492210207327,391.89625192999483,1 45360U 20019A   26078.63995875  .00107382  00000+0  13411-2 0  9997,2 45360  53.0430  50.3539 0002177 120.1672 239.9556 15.59043966332225
STARLINK-1301,45361,53.0421,5.31e-05,15.66010197,369.9766656337115,370.6933533611191,1 45361U 20019B   26078.23623508  .00044425  00000+0  42948-3 0  9991,2 45361  53.0421  57.1788 0000531 188.3765 171.7241 15.66010197332107
STARLINK-1262,45366,53.1561,0.0001215,15.29358328,476.89631502022166,478.56229053179686,1 45366U 20019G   26078.27839175  .00001966  00000+0  80453-4 0  9996,2 45366  53.1561 120.6270 0001215  96.6581 263.4557 15.29358328331228
STARLINK-1273,45367,53.0496,0.0003588,15.45664564,426.98352839654035,431.8686356642056,1 45367U 20019H   26078.30235459  .00049397  00000+0  10101-2 0  9997,2 45367  53.0496 109.0330 0003588  32.9556 327.1673 15.45664564331387
STARLINK-1276,45368,53.0732,0.0001503,15.11201931,531.4946417487554,533.5719892455945,1 45368U 20019J   26078.27822796  .00015205  00000+0  91050-3 0  9994,2 45368  53.0732 123.3120 0001503  89.1840 270.9323 15.11201931331185
STARLINK-1277,45369,53.0497,0.0005517,15.5054901,411.37420797755385,418.86989001221446,1 45369U 20019K   26078.30314633  .00059811  00000+0  10287-2 0  9998,2 45369  53.0497 106.5020 0005517  40.6118 319.5301 15.50549010331424
STARLINK-1281,45370,53.1584,0.000134,15.3019669,474.3066019988728,476.1433030021426,1 45370U 20019L   26078.27271574  .00002773  00000+0  10573-3 0  9996,2 45370  53.1584 120.7772 0001340  97.4391 262.6762 15.30196690331226
STARLINK-1300,45374,53.1555,0.0001221,15.29354229,476.90445013523913,478.5786556778594,1 45374U 20019Q   26078.29434449  .00000261  00000+0  21386-4 0  9999,2 45374  53.1555 120.6753 0001221  82.9092 277.2047 15.29354229331221
STARLINK-1302,45375,53.0534,0.0003781,15.55246174,398.87376934966596,404.00048330399477,1 45375U 20019R   26078.28517387  .00036970  00000+0  54117-3 0  9995,2 45375  53.0534 105.4048 0003781 357.8373   2.2620 15.55246174331439
STARLINK-1304,45376,53.0499,0.0003638,15.49869404,414.63565562185613,419.57987571335525,1 45376U 20019S   26078.32259866  .00052508  00000+0  92712-3 0  9994,2 45376  53.0499 103.3340 0003638  22.3074 337.8091 15.49869404331467
STARLINK-1305,45377,53.0433,0.0003393,15.54871357,400.2259253154634,404.8272836374608,1 45377U 20019T   26078.29259091  .00074573  00000+0  10944-2 0  9993,2 45377  53.0433  85.8947 0003393 107.5622 252.5759 15.54871357331714
STARLINK-1319,45379,53.0436,0.0002917,15.6631809,367.48233913080367,371.418881742733,1 45379U 20019V   26078.81933650  .00042895  00000+0  40982-3 0  9991,2 45379  53.0436  79.9332 0002917  77.1453 282.9887 15.66318090331842
STARLINK-1266,45383,53.05,0.0004952,15.46980373,422.19615312688074,428.93453993088406,1 45383U 20019Z   26078.28940707  .00053700  00000+0  10481-2 0  9995,2 45383  53.0500  87.1569 0004952  48.8820 311.2613 15.46980373331688
STARLINK-1267,45384,53.05,0.0002087,15.51433643,411.12222897810807,413.9566573254788,1 45384U 20019AA  26078.28761042  .00060812  00000+0  10137-2 0  9999,2 45384  53.0500  80.9045 0002087 323.8256  36.2611 15.51433643331776
STARLINK-1272,45386,53.0445,0.0002593,15.57978088,391.75359993228903,395.2653758008955,1 45386U 20019AC  26078.67919619  .00043996  00000+0  58039-3 0  9997,2 45386  53.0445  61.3055 0002593 129.2375 230.8866 15.57978088332084
STARLINK-1274,45387,53.0272,0.0002439,15.487197,418.8121709132374,422.1285315791756,1 45387U 20019AD  26078.66515558  .00064379  00000+0  11800-2 0  9993,2 45387  53.0272  55.1895 0002439 258.6853 101.3880 15.48719700332164
STARLINK-1280,45388,53.0422,0.0001807,15.66610794,367.3909720285128,369.8292464337892,1 45388U 20019AE  26078.28694337  .00045069  00000+0  42523-3 0  9997,2 45388  53.0422  75.3022 0001807  88.7842 271.3380 15.66610794331846
STARLINK-1283,45389,53.0441,0.0002856,15.58493226,390.08366798127827,393.950780074043,1 45389U 20019AF  26078.21665409  .00064776  00000+0  83291-3 0  9992,2 45389  53.0441  63.7458 0002856 281.0681  79.0009 15.58493226332017
STARLINK-1284,45390,53.0475,0.0004855,15.53478412,403.2853279607916,409.87328749559583,1 45390U 20019AG  26078.26901765  .00066892  00000+0  10342-2 0  9994,2 45390  53.0475  84.8334 0004855  52.0200 308.1247 15.53478412331718
STARLINK-1297,45395,53.0465,0.0005841,15.56077658,395.06328014542123,402.98035707732197,1 45395U 20019AM  26078.84310869  .00083738  00000+0  11728-2 0  9999,2 45395  53.0465  81.5974 0005841  55.8243 304.3320 15.56077658330999
STARLINK-1307,45397,53.0549,0.0002789,15.50490602,413.39796474914056,417.18733980918296,1 45397U 20019AP  26078.28842245  .00017930  00000+0  31629-3 0  9991,2 45397  53.0549  84.6684 0002789  58.8593 301.2688 15.50490602331542
STARLINK-1255,45399,53.0406,0.0001437,15.5371403,404.9184983637151,406.86822869019306,1 45399U 20019AR  26078.66506484  .00075077  00000+0  11492-2 0  9998,2 45399  53.0406  54.6599 0001437  40.0948 320.0167 15.53714030331980
STARLINK-1260,45404,53.1613,9.63e-05,15.30202546,474.54749046056077,475.86744460500904,1 45404U 20019AW  26078.29899876  .00002739  00000+0  10456-3 0  9999,2 45404  53.1613  84.6070 0000963  89.5158 270.5953 15.30202546331441
